STARLINK-36096          
1 66949U 25286AA  26004.25002315  .00119077  00000+0  29460-2 0  9994
2 66949  53.1589 300.2673 0001228  71.0325 355.1463 15.39564640  5600
STARLINK-36111          
1 66950U 25286AB  26004.25002315 -.00007199  00000+0 -12153-3 0  9991
2 66950  53.1594 300.0225 0001393  74.7697 114.1111 15.49300673  5602
STARLINK-35999          
1 66951U 25286AC  26004.08684326  .00091645  00000+0  16361-2 0  9992
2 66951  53.1598 300.7954 0001270  87.1607 272.9547 15.49317047  5492
STARLINK-36122          
1 66952U 25286AD  26004.25002315 -.02043037  00000+0 -41926-1 0  9994
2 66952  53.1592 300.0267 0001319  89.0733  97.7862 15.48835299  5601
HULIANWANG DIGUI-114    
1 66953U 25287A   25362.37786440  .00000040  00000+0  30534-4 0  9992
2 66953  86.4952 340.4811 0001731  85.2347 274.9006 13.62060403  2664
HULIANWANG DIGUI-115    
1 66954U 25287B   25362.30127108  .00000040  00000+0  30553-4 0  9997
2 66954  86.4760 340.5489 0003893  64.9296 295.2263 13.61926978  2659
HULIANWANG DIGUI-116    
1 66955U 25287C   25362.29720234  .00000185  00000+0  21733-3 0  9994
2 66955  86.4968 340.4874 0002763  86.1288 274.0183 13.62405302  2659
HULIANWANG DIGUI-117    
1 66956U 25287D   25358.91908891  .00000024  00000+0  90260-5 0  9991
2 66956  86.4976 341.7257 0001044 103.5815 256.5458 13.64670553  2192
HULIANWANG DIGUI-118    
1 66957U 25287E   25362.51058519  .00000182  00000+0  21280-3 0  9995
2 66957  86.4946 340.4177 0001409  89.7446 270.3872 13.62673219  2685
CZ-6A R/B               
1 66958U 25287F   26004.29855163  .00000143  00000+0  88803-4 0  9997
2 66958  86.5075 337.5254 0106435  34.2214 326.5759 13.94924034  3684
STARLINK-35887          
1 66959U 25288A   26004.26194514  .00057642  00000+0  13780-2 0  9998
2 66959  43.0020  32.5404 0001584 255.9243 104.1437 15.40673296  5370
STARLINK-35879          
1 66960U 25288B   26004.25002315 -.02095527  00000+0 -48667-1 0  9995
2 66960  42.9998  32.2082 0001471 278.1823 181.9771 15.45167378  5445
